STARLINK-2114
1 27393C 21005AW  21325.15659765  .00009654  00000-0  64672-3 0  3256
2 27393  53.0492 212.5332 0001735  81.6221 324.4918 15.06394425    16
